{{Infobox Planet  
| name = 454 Mathesis
| image = 
| caption = 
| discovery=yes | physical_characteristics = yes | bgcolour=#FFFFC0
| discovery_ref = 
| discoverer = [[弗利德里希·卡尔·阿诺德·施瓦斯曼|弗利德里希·卡尔·阿诺德·施瓦斯曼]]
| discovery_site = [[海德堡|海德堡]]（[[天文台编号列表|024]]）
| discovered =  1900年3月28日
| mp_name = 454
| alt_names = 1900 FC
| named_after = [[数学|数学]]
| mp_category=[[小行星带|主带小行星]]
| orbit_ref = <ref>[http://ssd.jpl.nasa.gov/sbdb.cgi?sstr=454 454 Mathesis (1900 FC)]</ref>
| epoch = 2011年8月27日
| semimajor= 2.627426298152108AU
| perihelion=2.334571956480732AU
| aphelion=2.920280639823484[[天文单位|AU]]
| eccentricity =0.1114605353068677				
| period =1555.586768981982[[日|地球日]]<br>4.26[[年|地球年]] 
| inclination=6.29680067153217[[角度|°]]
| asc_node=32.41797998258387°	
| arg_peri=177.4594056080788°
| mean_anomaly=41.46040817961926°
| avg_speed=
 | dimensions=81.57千米
 | mass=
 | density=
 | surface_grav=
 | escape_velocity=
 | rotation=8.378小时
 | spectral_type= 
 | magnitude=
 | abs_magnitude=9.20
 | albedo=0.0555
 | single_temperature=
}}
'''小行星454'''（'''454 Mathesis'''），是由[[德国|德国]][[天文学家|天文学家]][[弗利德里希·卡尔·阿诺德·施瓦斯曼|弗利德里希·卡尔·阿诺德·施瓦斯曼]]于1900年3月28日在德国[[海德堡|海德堡]][[王座山天文台|王座山天文台]]发现的[[小行星带|主带]][[小行星|小行星]]。

小行星454以[[数学|数学]]的希腊语命名，以庆祝汉堡数学协会成立300周年。

== 参考资料 ==
{{Reflist}}

{{Minor Planet Number|(453)[[小行星453|小行星453]]|(455)[[小行星455|小行星455]]}}

[[Category:小行星带天体|Category:小行星带天体]]
[[Category:1900年发现的小行星|Category:1900年发现的小行星]]